[{"OBJECT_NAME":"STARLINK-2432","OBJECT_ID":"2021-018BF","EPOCH":"2026-03-09T17:50:11.892480","MEAN_MOTION":15.06401384,"ECCENTRICITY":0.00012222,"INCLINATION":53.0558,"RA_OF_ASC_NODE":231.3746,"ARG_OF_PERICENTER":86.2231,"MEAN_ANOMALY":273.8898,"EPHEMERIS_TYPE":0,"CLASSIFICATION_TYPE":"U","NORAD_CAT_ID":47840,"ELEMENT_SET_NO":999,"REV_AT_EPOCH":27688,"BSTAR":3.9720129e-5,"MEAN_MOTION_DOT":3.1e-6,"MEAN_MOTION_DDOT":0},{"OBJECT_NAME":"OBJECT M","OBJECT_ID":"2017-042M","EPOCH":"2026-03-09T22:38:39.337440","MEAN_MOTION":15.07991931,"ECCENTRICITY":0.0005117,"INCLINATION":97.4139,"RA_OF_ASC_NODE":234.2602,"ARG_OF_PERICENTER":83.1417,"MEAN_ANOMALY":277.0393,"EPHEMERIS_TYPE":0,"CLASSIFICATION_TYPE":"U","NORAD_CAT_ID":42836,"ELEMENT_SET_NO":999,"REV_AT_EPOCH":47205,"BSTAR":0.00047182615,"MEAN_MOTION_DOT":7.201e-5,"MEAN_MOTION_DDOT":0}]
